[{"OBJECT_NAME":"STARLINK-34134","OBJECT_ID":"2025-095K","EPOCH":"2026-03-09T22:00:01.999584","MEAN_MOTION":15.27539038,"ECCENTRICITY":0.00014459,"INCLINATION":43.0011,"RA_OF_ASC_NODE":175.0537,"ARG_OF_PERICENTER":272.2952,"MEAN_ANOMALY":0.4992,"EPHEMERIS_TYPE":0,"CLASSIFICATION_TYPE":"U","NORAD_CAT_ID":63899,"ELEMENT_SET_NO":999,"REV_AT_EPOCH":575,"BSTAR":-0.00035635985,"MEAN_MOTION_DOT":-0.00010043,"MEAN_MOTION_DDOT":0},{"OBJECT_NAME":"TITAN 3C TRANSTAGE DEB","OBJECT_ID":"1965-082PT","EPOCH":"2026-03-09T13:23:41.116128","MEAN_MOTION":15.28908269,"ECCENTRICITY":0.00104371,"INCLINATION":32.0266,"RA_OF_ASC_NODE":255.1391,"ARG_OF_PERICENTER":172.8339,"MEAN_ANOMALY":187.2474,"EPHEMERIS_TYPE":0,"CLASSIFICATION_TYPE":"U","NORAD_CAT_ID":3462,"ELEMENT_SET_NO":999,"REV_AT_EPOCH":24824,"BSTAR":0.0004444037,"MEAN_MOTION_DOT":0.00012939,"MEAN_MOTION_DDOT":0}]
